BEESAT-4                
1 41619U 16040W   21295.68203160  .00003347  00000-0  13156-3 0  9993
2 41619  97.2543 348.1623 0009020 235.4084 124.6305 15.26320004284410
CAS-2T & KS-1Q          
1 41847U 16066G   21296.13659846  .00000276  00000-0  51862-4 0  9996
2 41847  98.5866 355.7066 0364773 199.0192 159.7072 14.38258437260230
NAYIF-1 (EO-88)         
1 42017U 17008BX  21295.62412623  .00003838  00000-0  13851-3 0  9998
2 42017  97.3031   0.9223 0006372  32.6111 327.5522 15.29087547260683
ZHUHAI-1 02 (CAS-4B)    
1 42759U 17034B   21296.20778718  .00001263  00000-0  88635-4 0  9998
2 42759  43.0172 198.6183 0008759 250.3482 247.7014 15.10468552240463
ZHUHAI-1 01 (CAS-4A)    
1 42761U 17034D   21296.46151628  .00001265  00000-0  88531-4 0  9991
2 42761  43.0180 196.1841 0009446 252.4181 276.4922 15.10555341240507
MAX VALIER SAT          
1 42778U 17036P   21295.89273316  .00002153  00000-0  91194-4 0  9992
2 42778  97.2406 340.2630 0013470  88.0250 272.2530 15.24128136240699
RADFXSAT (FOX-1B)       
1 43017U 17073E   21296.27706744  .00001108  00000-0  90866-4 0  9993
2 43017  97.6931 195.1234 0252467 243.0821 114.4395 14.79870988212028
FOX-1D (AO-92)          
1 43137U 18004AC  21295.84688287  .00002771  00000-0  11095-3 0  9997
2 43137  97.3962   8.5440 0010113 118.0111 242.2151 15.25859443210080
DIWATA-2B               
1 43678U 18084H   21296.36612153 -.00000059  00000-0 -52443-7 0  9997
2 43678  97.9402  62.4307 0009760 357.2590   2.8610 14.91809376162505
ES'HAIL 2               
1 43700U 18090A   21296.30118834  .00000149  00000-0  00000+0 0  9993
2 43700   0.0171 247.9276 0002445 348.4963 289.7572  1.00270753 10897
FOX-1CLIFF (AO-95)      
1 43770U 18099N   21296.12070437  .00000662  00000-0  64817-4 0  9996
2 43770  97.6524   3.4146 0014127 356.5168   3.5953 14.95486267157531
ITASAT 1                
1 43786U 18099AE  21296.14946599  .00000906  00000-0  86272-4 0  9996
2 43786  97.6551   4.2094 0014642 349.8282  10.2640 14.95762775157576
JY1SAT (JO-97)          
1 43803U 18099AX  21296.42543737  .00000594  00000-0  57904-4 0  9997
2 43803  97.6512   4.2190 0014602 348.4272  11.6611 14.96044736157620
UWE-4                   
1 43880U 18111E   21295.98880418  .00000342  00000-0  34695-4 0  9990
2 43880  97.6765 201.4825 0013254  40.9357 319.2858 14.97053400152164
NEXUS (FO-99)           
1 43937U 19003F   21295.65991342  .00002974  00000-0  11611-3 0  9992
2 43937  97.1630 333.7044 0020873 281.9485  77.9414 15.26466645153663
PSAT2 (NO-104)          
1 44354U 19036R   21296.43945781  .00028868  00000-0  36218-3 0  9995
2 44354  28.5298 351.0049 0307081 228.0634 129.3399 15.18308309128401
BRICSAT2 (NO-103)       
1 44355U 19036S   21295.67579437  .00070578 -52555-5  63825-3 0  9999
2 44355  28.5260 286.8148 0221700 332.4766  26.4244 15.41055327128990
JAISAT-1                
1 44419U 19038F   21296.46194531  .00002430  00000-0  13602-3 0  9990
2 44419  97.6051 260.8319 0019365 227.8191 132.1396 15.14276426127165
DUCHIFAT-3              
1 44854U 19089C   21296.43642284  .00001210  00000-0  10249-3 0  9998
2 44854  36.9657  63.6607 0006979  87.1866 272.9682 14.99715377102325
CAS-6 (TO-108)          
1 44881U 19093C   21296.45847180  .00000157  00000-0  26826-4 0  9995
2 44881  97.9159  13.8388 0013815 234.5000 125.4932 14.81495847 99689
RS-44 & BREEZE-KM R/B   
1 44909U 19096E   21295.75186126  .00000017  00000-0  18970-4 0  9993
2 44909  82.5264  28.2195 0217998 155.2761 205.8980 12.79711247 85102
ORBITAL FACTORY 2 (OF-2)
1 45113U 19071C   21295.83554619  .00005908  00000-0  17054-3 0  9994
2 45113  51.6400 139.3808 0011407  37.5983 322.5796 15.37079656 96752
HUSKYSAT-1 (HO-107)     
1 45119U 19071J   21296.10828285  .00005493  00000-0  15975-3 0  9993
2 45119  51.6393 137.4425 0010828  35.3297 324.8402 15.37001756 96792
BY70-2                  
1 45857U 20042B   21296.46321306  .00002070  00000-0  29765-3 0  9993
2 45857  97.9763  10.8622 0012026 156.0762 204.1010 14.77433221 70446
SALSAT                  
1 46495U 20068K   21295.90818202  .00001694  00000-0  12809-3 0  9996
2 46495  97.6987 232.7036 0017213   5.3304 354.8102 15.03612062 58482
BY70-3                  
1 46839U 20079N   21296.48867725  .00005738  00000-0  17196-3 0  9995
2 46839  97.2294   7.8108 0008684 105.7933  21.3003 15.34846397 53831
RADFXSAT-2 (AO-109)     
1 47311U 21002C   21296.07640628  .00002476  00000-0  11671-3 0  9992
2 47311  60.6848 173.2718 0040090 112.1784 248.3564 15.22204576 42301
UVSQ-SAT                
1 47438U 21006AB  21296.39513617  .00001622  00000-0  94089-4 0  9995
2 47438  97.4730 355.2546 0013087  23.3519 336.8305 15.13509250 41408
DIY-1 (ARDUIQUBE)       
1 47963U 21022AH  21295.66511332  .00003801  00000-0  24989-3 0  9999
2 47963  97.5460 195.7160 0017668 227.5796 132.3938 15.08065527 31065
